{
    "links": {
        "self": "http://www.neowsapp.com/rest/v1/neo/3788028?api_key=iIulBulltgU6a56xZRHN4H3l9WmuAYTsLGpBGhQ2"
    },
    "id": "3788028",
    "neo_reference_id": "3788028",
    "name": "(2017 UN5)",
    "designation": "2017 UN5",
    "nasa_jpl_url": "http://ssd.jpl.nasa.gov/sbdb.cgi?sstr=3788028",
    "absolute_magnitude_h": 27.6,
    "estimated_diameter": {
        "kilometers": {
            "estimated_diameter_min": 0.0080270317,
            "estimated_diameter_max": 0.0179489885
        },
        "meters": {
            "estimated_diameter_min": 8.0270316728,
            "estimated_diameter_max": 17.948988478
        },
        "miles": {
            "estimated_diameter_min": 0.0049877647,
            "estimated_diameter_max": 0.0111529809
        },
        "feet": {
            "estimated_diameter_min": 26.3354065935,
            "estimated_diameter_max": 58.8877593581
        }
    },
    "is_potentially_hazardous_asteroid": false,
    "close_approach_data": [
        {
            "close_approach_date": "1913-11-17",
            "close_approach_date_full": "1913-Nov-17 17:26",
            "epoch_date_close_approach": -1771050840000,
            "relative_velocity": {
                "kilometers_per_second": "16.2578445671",
                "kilometers_per_hour": "58528.2404417296",
                "miles_per_hour": "36367.1725122513"
            },
            "miss_distance": {
                "astronomical": "0.307183409",
                "lunar": "119.494346101",
                "kilometers": "45953983.68573883",
                "miles": "28554481.373422654"
            },
            "orbiting_body": "Earth"
        },
        {
            "close_approach_date": "2017-10-20",
            "close_approach_date_full": "2017-Oct-20 11:34",
            "epoch_date_close_approach": 1508499240000,
            "relative_velocity": {
                "kilometers_per_second": "7.2902213551",
                "kilometers_per_hour": "26244.7968784822",
                "miles_per_hour": "16307.4961492991"
            },
            "miss_distance": {
                "astronomical": "0.0209400941",
                "lunar": "8.1456966049",
                "kilometers": "3132593.474959567",
                "miles": "1946503.3247813446"
            },
            "orbiting_body": "Earth"
        }
    ],
    "orbital_data": {
        "orbit_id": "2",
        "orbit_determination_date": "2019-07-17 06:12:22",
        "first_observation_date": "2017-10-23",
        "last_observation_date": "2017-10-27",
        "data_arc_in_days": 4,
        "observations_used": 40,
        "orbit_uncertainty": "7",
        "minimum_orbit_intersection": ".00749969",
        "jupiter_tisserand_invariant": "3.929",
        "epoch_osculation": "2459000.5",
        "eccentricity": ".4501950081074234",
        "semi_major_axis": "1.808401283585081",
        "inclination": "2.394247422004463",
        "ascending_node_longitude": "27.66217723770828",
        "orbital_period": "888.2610867458275",
        "perihelion_distance": ".994268053060021",
        "perihelion_argument": "338.908679312623",
        "aphelion_distance": "2.622534514110142",
        "perihelion_time": "2458918.443441728023",
        "mean_anomaly": "33.25639434024247",
        "mean_motion": ".4052862445194704",
        "equinox": "J2000",
        "orbit_class": {
            "orbit_class_type": "APO",
            "orbit_class_description": "Near-Earth asteroid orbits which cross the Earth’s orbit similar to that of 1862 Apollo",
            "orbit_class_range": "a (semi-major axis) > 1.0 AU; q (perihelion) < 1.017 AU"
        }
    },
    "is_sentry_object": false
}